{
  "type": "FeatureCollection",
  "features": [
    {
      "type": "Feature",
      "properties": {
        "norad_id": 35052,
        "name": "IRIDIUM 33 DEB",
        "group": "iridium-33-debris",
        "lat": -62.29956308159898,
        "lon": -149.95178805905465,
        "alt_km": 778.4279818457917,
        "timestamp": "2025-12-06T18:50:10.554631+00:00",
        "meta_object_name": "IRIDIUM 33 DEB",
        "meta_object_id": "1997-051NY",
        "meta_epoch": "2025-12-04T20:38:14.764704",
        "meta_mean_motion": 14.38478571,
        "meta_eccentricity": 0.0013621,
        "meta_inclination": 86.3316,
        "meta_ra_of_asc_node": 23.8542,
        "meta_arg_of_pericenter": 106.9628,
        "meta_mean_anomaly": 253.3064,
        "meta_ephemeris_type": 0,
        "meta_classification_type": "U",
        "meta_norad_cat_id": 35052,
        "meta_element_set_no": 999,
        "meta_rev_at_epoch": 87162,
        "meta_bstar": 0.00036777,
        "meta_mean_motion_dot": 1.143e-05,
        "meta_mean_motion_ddot": 0,
        "tle_line1": "1 35052U 97051NY  25338.85989311  .00001143  00000+0  36777-3 0  9993",
        "tle_line2": "2 35052  86.3316  23.8542 0013621 106.9628 253.3064 14.38478571871628"
      },
      "geometry": {
        "type": "Point",
        "coordinates": [
          -149.95178805905465,
          -62.29956308159898
        ]
      }
    },
    {
      "type": "Feature",
      "properties": {
        "norad_id": 35080,
        "name": "IRIDIUM 33 DEB",
        "group": "iridium-33-debris",
        "lat": 49.126135713396046,
        "lon": -129.17695696605773,
        "alt_km": 593.9305545124462,
        "timestamp": "2025-12-06T18:50:10.554641+00:00",
        "meta_object_name": "IRIDIUM 33 DEB",
        "meta_object_id": "1997-051PF",
        "meta_epoch": "2025-12-05T22:50:10.565088",
        "meta_mean_motion": 14.84725398,
        "meta_eccentricity": 0.00625763,
        "meta_inclination": 86.2064,
        "meta_ra_of_asc_node": 55.6178,
        "meta_arg_of_pericenter": 202.8962,
        "meta_mean_anomaly": 156.947,
        "meta_ephemeris_type": 0,
        "meta_classification_type": "U",
        "meta_norad_cat_id": 35080,
        "meta_element_set_no": 999,
        "meta_rev_at_epoch": 69587,
        "meta_bstar": 0.011235471,
        "meta_mean_motion_dot": 0.000998,
        "meta_mean_motion_ddot": 0,
        "tle_line1": "1 35080U 97051PF  25339.95151117  .00099800  00000+0  11235-1 0  9998",
        "tle_line2": "2 35080  86.2064  55.6178 0062576 202.8962 156.9470 14.84725398695879"
      },
      "geometry": {
        "type": "Point",
        "coordinates": [
          -129.17695696605773,
          49.126135713396046
        ]
      }
    },
    {
      "type": "Feature",
      "properties": {
        "norad_id": 35297,
        "name": "IRIDIUM 33 DEB",
        "group": "iridium-33-debris",
        "lat": 6.741720334191434,
        "lon": 65.72930748737929,
        "alt_km": 754.4823096958062,
        "timestamp": "2025-12-06T18:50:10.554651+00:00",
        "meta_object_name": "IRIDIUM 33 DEB",
        "meta_object_id": "1997-051PM",
        "meta_epoch": "2025-12-06T00:31:29.302752",
        "meta_mean_motion": 14.45108459,
        "meta_eccentricity": 0.00170329,
        "meta_inclination": 86.3867,
        "meta_ra_of_asc_node": 65.6268,
        "meta_arg_of_pericenter": 161.2449,
        "meta_mean_anomaly": 198.9384,
        "meta_ephemeris_type": 0,
        "meta_classification_type": "U",
        "meta_norad_cat_id": 35297,
        "meta_element_set_no": 999,
        "meta_rev_at_epoch": 70329,
        "meta_bstar": 0.0012426888,
        "meta_mean_motion_dot": 4.371e-05,
        "meta_mean_motion_ddot": 0,
        "tle_line1": "1 35297U 97051PM  25340.02186693  .00004371  00000+0  12427-2 0  9999",
        "tle_line2": "2 35297  86.3867  65.6268 0017032 161.2449 198.9384 14.45108459703293"
      },
      "geometry": {
        "type": "Point",
        "coordinates": [
          65.72930748737929,
          6.741720334191434
        ]
      }
    },
    {
      "type": "Feature",
      "properties": {
        "norad_id": 35299,
        "name": "IRIDIUM 33 DEB",
        "group": "iridium-33-debris",
        "lat": 30.959493409903324,
        "lon": 38.0103911938403,
        "alt_km": 753.9228125755953,
        "timestamp": "2025-12-06T18:50:10.554661+00:00",
        "meta_object_name": "IRIDIUM 33 DEB",
        "meta_object_id": "1997-051PP",
        "meta_epoch": "2025-12-04T22:15:32.154336",
        "meta_mean_motion": 14.40800476,
        "meta_eccentricity": 0.0058727,
        "meta_inclination": 86.2893,
        "meta_ra_of_asc_node": 36.5873,
        "meta_arg_of_pericenter": 127.2291,
        "meta_mean_anomaly": 356.5642,
        "meta_ephemeris_type": 0,
        "meta_classification_type": "U",
        "meta_norad_cat_id": 35299,
        "meta_element_set_no": 999,
        "meta_rev_at_epoch": 86218,
        "meta_bstar": 0.0017577,
        "meta_mean_motion_dot": 5.762e-05,
        "meta_mean_motion_ddot": 0,
        "tle_line1": "1 35299U 97051PP  25338.92745549  .00005762  00000+0  17577-2 0  9994",
        "tle_line2": "2 35299  86.2893  36.5873 0058727 127.2291 356.5642 14.40800476862181"
      },
      "geometry": {
        "type": "Point",
        "coordinates": [
          38.0103911938403,
          30.959493409903324
        ]
      }
    },
    {
      "type": "Feature",
      "properties": {
        "norad_id": 35480,
        "name": "IRIDIUM 33 DEB",
        "group": "iridium-33-debris",
        "lat": -58.686891401450616,
        "lon": 21.483535639742115,
        "alt_km": 744.8481379677023,
        "timestamp": "2025-12-06T18:50:10.554671+00:00",
        "meta_object_name": "IRIDIUM 33 DEB",
        "meta_object_id": "1997-051QA",
        "meta_epoch": "2025-12-01T21:29:27.496896",
        "meta_mean_motion": 14.49686619,
        "meta_eccentricity": 0.00155495,
        "meta_inclination": 86.3575,
        "meta_ra_of_asc_node": 29.6125,
        "meta_arg_of_pericenter": 136.7189,
        "meta_mean_anomaly": 223.524,
        "meta_ephemeris_type": 0,
        "meta_classification_type": "U",
        "meta_norad_cat_id": 35480,
        "meta_element_set_no": 999,
        "meta_rev_at_epoch": 86874,
        "meta_bstar": 0.000651702,
        "meta_mean_motion_dot": 2.53e-05,
        "meta_mean_motion_ddot": 0,
        "tle_line1": "1 35480U 97051QA  25335.89545714  .00002530  00000+0  65170-3 0  9994",
        "tle_line2": "2 35480  86.3575  29.6125 0015549 136.7189 223.5240 14.49686619868745"
      },
      "geometry": {
        "type": "Point",
        "coordinates": [
          21.483535639742115,
          -58.686891401450616
        ]
      }
    },
    {
      "type": "Feature",
      "properties": {
        "norad_id": 35484,
        "name": "IRIDIUM 33 DEB",
        "group": "iridium-33-debris",
        "lat": 35.87282885344635,
        "lon": 172.8966900039984,
        "alt_km": 555.9657756880106,
        "timestamp": "2025-12-06T18:50:10.554681+00:00",
        "meta_object_name": "IRIDIUM 33 DEB",
        "meta_object_id": "1997-051QE",
        "meta_epoch": "2025-12-01T19:32:14.692416",
        "meta_mean_motion": 14.97587734,
        "meta_eccentricity": 0.00218288,
        "meta_inclination": 86.3628,
        "meta_ra_of_asc_node": 357.8533,
        "meta_arg_of_pericenter": 162.6444,
        "meta_mean_anomaly": 197.5538,
        "meta_ephemeris_type": 0,
        "meta_classification_type": "U",
        "meta_norad_cat_id": 35484,
        "meta_element_set_no": 999,
        "meta_rev_at_epoch": 61852,
        "meta_bstar": 0.0025030806,
        "meta_mean_motion_dot": 0.00029486,
        "meta_mean_motion_ddot": 0,
        "tle_line1": "1 35484U 97051QE  25335.81405894  .00029486  00000+0  25031-2 0  9994",
        "tle_line2": "2 35484  86.3628 357.8533 0021828 162.6444 197.5538 14.97587734618526"
      },
      "geometry": {
        "type": "Point",
        "coordinates": [
          172.8966900039984,
          35.87282885344635
        ]
      }
    },
    {
      "type": "Feature",
      "properties": {
        "norad_id": 35488,
        "name": "IRIDIUM 33 DEB",
        "group": "iridium-33-debris",
        "lat": -45.13945335065009,
        "lon": 127.32481873934377,
        "alt_km": 647.822307514688,
        "timestamp": "2025-12-06T18:50:10.554691+00:00",
        "meta_object_name": "IRIDIUM 33 DEB",
        "meta_object_id": "1997-051QJ",
        "meta_epoch": "2025-12-05T07:48:48.847104",
        "meta_mean_motion": 14.8277176,
        "meta_eccentricity": 0.00306154,
        "meta_inclination": 86.3258,
        "meta_ra_of_asc_node": 304.2947,
        "meta_arg_of_pericenter": 66.2574,
        "meta_mean_anomaly": 294.1855,
        "meta_ephemeris_type": 0,
        "meta_classification_type": "U",
        "meta_norad_cat_id": 35488,
        "meta_element_set_no": 999,
        "meta_rev_at_epoch": 88156,
        "meta_bstar": 0.0027096313,
        "meta_mean_motion_dot": 0.00022144,
        "meta_mean_motion_ddot": 0,
        "tle_line1": "1 35488U 97051QJ  25339.32556536  .00022144  00000+0  27096-2 0  9995",
        "tle_line2": "2 35488  86.3258 304.2947 0030615  66.2574 294.1855 14.82771760881561"
      },
      "geometry": {
        "type": "Point",
        "coordinates": [
          127.32481873934377,
          -45.13945335065009
        ]
      }
    }
  ]
}